{"type": "FeatureCollection", "features": [ {"type": "Feature", "properties": {"norad_id": 40938, "name": "BEIDOU-3S IGSO-2S (C56)", "group": "gnss", "lat": -15.703624241263315, "lon": 94.87563961587799, "alt_km": 35537.16572478992, "timestamp": "2025-12-11T18:59:46.315142+00:00", "meta": {"OBJECT_NAME": "BEIDOU-3S IGSO-2S (C56)", "OBJECT_ID": "2015-053A", "EPOCH": "2025-12-10T19:08:53.549664", "MEAN_MOTION": 1.00269885, "ECCENTRICITY": 0.00610666, "INCLINATION": 49.5143, "RA_OF_ASC_NODE": 261.0281, "ARG_OF_PERICENTER": 188.5075, "MEAN_ANOMALY": 13.4914, "EPHEMERIS_TYPE": 0, "CLASSIFICATION_TYPE": "U", "NORAD_CAT_ID": 40938, "ELEMENT_SET_NO": 999, "REV_AT_EPOCH": 3746, "BSTAR": 0, "MEAN_MOTION_DOT": -1.54e-06, "MEAN_MOTION_DDOT": 0}, "tle": {"line1": "1 40938U 15053A   25344.79784201 -.00000154  00000+0  00000+0 0  9993", "line2": "2 40938  49.5143 261.0281 0061066 188.5075  13.4914  1.00269885 37466"}}, "geometry": {"type": "Point", "coordinates": [94.87563961587799, -15.703624241263315]}}, {"type": "Feature", "properties": {"norad_id": 41019, "name": "GPS BIIF-11 (PRN 10)", "group": "gnss", "lat": -12.656530184082067, "lon": 29.615429612084803, "alt_km": 20305.43846303211, "timestamp": "2025-12-11T18:59:46.315153+00:00", "meta": {"OBJECT_NAME": "GPS BIIF-11 (PRN 10)", "OBJECT_ID": "2015-062A", "EPOCH": "2025-12-10T07:36:33.024096", "MEAN_MOTION": 2.00567034, "ECCENTRICITY": 0.01107574, "INCLINATION": 56.8304, "RA_OF_ASC_NODE": 38.096, "ARG_OF_PERICENTER": 229.8791, "MEAN_ANOMALY": 129.1964, "EPHEMERIS_TYPE": 0, "CLASSIFICATION_TYPE": "U", "NORAD_CAT_ID": 41019, "ELEMENT_SET_NO": 999, "REV_AT_EPOCH": 7404, "BSTAR": 0, "MEAN_MOTION_DOT": -8.8e-07, "MEAN_MOTION_DDOT": 0}, "tle": {"line1": "1 41019U 15062A   25344.31704889 -.00000088  00000+0  00000+0 0  9992", "line2": "2 41019  56.8304  38.0960 0110757 229.8791 129.1964  2.00567034 74042"}}, "geometry": {"type": "Point", "coordinates": [29.615429612084803, -12.656530184082067]}}, {"type": "Feature", "properties": {"norad_id": 41028, "name": "GSAT-15 (GAGAN/PRN 139)", "group": "gnss", "lat": 0.0030684172417158304, "lon": 99.15902740661271, "alt_km": 35794.143386923664, "timestamp": "2025-12-11T18:59:46.315165+00:00", "meta": {"OBJECT_NAME": "GSAT-15 (GAGAN/PRN 139)", "OBJECT_ID": "2015-065A", "EPOCH": "2025-12-10T21:41:05.996832", "MEAN_MOTION": 1.00272628, "ECCENTRICITY": 0.0003038, "INCLINATION": 0.05, "RA_OF_ASC_NODE": 266.153, "ARG_OF_PERICENTER": 322.572, "MEAN_ANOMALY": 269.9198, "EPHEMERIS_TYPE": 0, "CLASSIFICATION_TYPE": "U", "NORAD_CAT_ID": 41028, "ELEMENT_SET_NO": 999, "REV_AT_EPOCH": 3691, "BSTAR": 0, "MEAN_MOTION_DOT": -2.53e-06, "MEAN_MOTION_DDOT": 0}, "tle": {"line1": "1 41028U 15065A   25344.90354163 -.00000253  00000+0  00000+0 0  9990", "line2": "2 41028   0.0500 266.1530 0003038 322.5720 269.9198  1.00272628 36911"}}, "geometry": {"type": "Point", "coordinates": [99.15902740661271, 0.0030684172417158304]}}, {"type": "Feature", "properties": {"norad_id": 41174, "name": "GSAT0209 (GALILEO 12)", "group": "gnss", "lat": -53.921576429473106, "lon": 37.084042898744634, "alt_km": 23225.767341635365, "timestamp": "2025-12-11T18:59:46.315179+00:00", "meta": {"OBJECT_NAME": "GSAT0209 (GALILEO 12)", "OBJECT_ID": "2015-079A", "EPOCH": "2025-12-08T09:34:38.512704", "MEAN_MOTION": 1.70474355, "ECCENTRICITY": 0.00023972, "INCLINATION": 55.7104, "RA_OF_ASC_NODE": 106.5001, "ARG_OF_PERICENTER": 353.8677, "MEAN_ANOMALY": 6.0907, "EPHEMERIS_TYPE": 0, "CLASSIFICATION_TYPE": "U", "NORAD_CAT_ID": 41174, "ELEMENT_SET_NO": 999, "REV_AT_EPOCH": 6152, "BSTAR": 0, "MEAN_MOTION_DOT": 1e-07, "MEAN_MOTION_DDOT": 0}, "tle": {"line1": "1 41174U 15079A   25342.39905686  .00000010  00000+0  00000+0 0  9990", "line2": "2 41174  55.7104 106.5001 0002397 353.8677   6.0907  1.70474355 61526"}}, "geometry": {"type": "Point", "coordinates": [37.084042898744634, -53.921576429473106]}}, {"type": "Feature", "properties": {"norad_id": 41175, "name": "GSAT0208 (GALILEO 11)", "group": "gnss", "lat": 26.77713237860983, "lon": -93.72776124707686, "alt_km": 23223.360170534383, "timestamp": "2025-12-11T18:59:46.315190+00:00", "meta": {"OBJECT_NAME": "GSAT0208 (GALILEO 11)", "OBJECT_ID": "2015-079B", "EPOCH": "2025-12-08T14:51:40.201056", "MEAN_MOTION": 1.70474231, "ECCENTRICITY": 0.0001859, "INCLINATION": 55.7088, "RA_OF_ASC_NODE": 106.4912, "ARG_OF_PERICENTER": 3.1611, "MEAN_ANOMALY": 356.8026, "EPHEMERIS_TYPE": 0, "CLASSIFICATION_TYPE": "U", "NORAD_CAT_ID": 41175, "ELEMENT_SET_NO": 999, "REV_AT_EPOCH": 6194, "BSTAR": 0, "MEAN_MOTION_DOT": 1e-07, "MEAN_MOTION_DDOT": 0}, "tle": {"line1": "1 41175U 15079B   25342.61921529  .00000010  00000+0  00000+0 0  9990", "line2": "2 41175  55.7088 106.4912 0001859   3.1611 356.8026  1.70474231 61940"}}, "geometry": {"type": "Point", "coordinates": [-93.72776124707686, 26.77713237860983]}}, {"type": "Feature", "properties": {"norad_id": 41241, "name": "IRNSS-1E", "group": "gnss", "lat": 26.322404926824206, "lon": 112.4939684797519, "alt_km": 35844.52647638842, "timestamp": "2025-12-11T18:59:46.315202+00:00", "meta": {"OBJECT_NAME": "IRNSS-1E", "OBJECT_ID": "2016-003A", "EPOCH": "2025-12-10T15:46:53.425056", "MEAN_MOTION": 1.00274749, "ECCENTRICITY": 0.00218635, "INCLINATION": 32.8208, "RA_OF_ASC_NODE": 62.484, "ARG_OF_PERICENTER": 187.1303, "MEAN_ANOMALY": 178.5288, "EPHEMERIS_TYPE": 0, "CLASSIFICATION_TYPE": "U", "NORAD_CAT_ID": 41241, "ELEMENT_SET_NO": 999, "REV_AT_EPOCH": 3619, "BSTAR": 0, "MEAN_MOTION_DOT": -3.06e-06, "MEAN_MOTION_DDOT": 0}, "tle": {"line1": "1 41241U 16003A   25344.65756279 -.00000306  00000+0  00000+0 0  9995", "line2": "2 41241  32.8208  62.4840 0021863 187.1303 178.5288  1.00274749 36196"}}, "geometry": {"type": "Point", "coordinates": [112.4939684797519, 26.322404926824206]}}, {"type": "Feature", "properties": {"norad_id": 41328, "name": "GPS BIIF-12 (PRN 32)", "group": "gnss", "lat": -52.732393335114246, "lon": 31.922051355416496, "alt_km": 20003.89440392773, "timestamp": "2025-12-11T18:59:46.315215+00:00", "meta": {"OBJECT_NAME": "GPS BIIF-12 (PRN 32)", "OBJECT_ID": "2016-007A", "EPOCH": "2025-12-10T09:35:17.707200", "MEAN_MOTION": 2.005608, "ECCENTRICITY": 0.00920502, "INCLINATION": 55.4049, "RA_OF_ASC_NODE": 96.9499, "ARG_OF_PERICENTER": 243.5192, "MEAN_ANOMALY": 115.5235, "EPHEMERIS_TYPE": 0, "CLASSIFICATION_TYPE": "U", "NORAD_CAT_ID": 41328, "ELEMENT_SET_NO": 999, "REV_AT_EPOCH": 7205, "BSTAR": 0, "MEAN_MOTION_DOT": 3e-08, "MEAN_MOTION_DDOT": 0}, "tle": {"line1": "1 41328U 16007A   25344.39951050  .00000003  00000+0  00000+0 0  9993", "line2": "2 41328  55.4049  96.9499 0092050 243.5192 115.5235  2.00560800 72052"}}, "geometry": {"type": "Point", "coordinates": [31.922051355416496, -52.732393335114246]}}, {"type": "Feature", "properties": {"norad_id": 41330, "name": "COSMOS 2514 (751)", "group": "gnss", "lat": 16.880531045469873, "lon": 131.3382733472867, "alt_km": 19112.04530545093, "timestamp": "2025-12-11T18:59:46.315227+00:00", "meta": {"OBJECT_NAME": "COSMOS 2514 (751)", "OBJECT_ID": "2016-008A", "EPOCH": "2025-12-10T04:09:27.230112", "MEAN_MOTION": 2.13102584, "ECCENTRICITY": 0.00121793, "INCLINATION": 65.1353, "RA_OF_ASC_NODE": 319.4918, "ARG_OF_PERICENTER": 220.0546, "MEAN_ANOMALY": 139.8533, "EPHEMERIS_TYPE": 0, "CLASSIFICATION_TYPE": "U", "NORAD_CAT_ID": 41330, "ELEMENT_SET_NO": 999, "REV_AT_EPOCH": 7659, "BSTAR": 0, "MEAN_MOTION_DOT": -5e-07, "MEAN_MOTION_DDOT": 0}, "tle": {"line1": "1 41330U 16008A   25344.17323183 -.00000050  00000+0  00000+0 0  9996", "line2": "2 41330  65.1353 319.4918 0012179 220.0546 139.8533  2.13102584 76595"}}, "geometry": {"type": "Point", "coordinates": [131.3382733472867, 16.880531045469873]}}, {"type": "Feature", "properties": {"norad_id": 41384, "name": "IRNSS-1F", "group": "gnss", "lat": -4.3315351543569225, "lon": 38.36668957448708, "alt_km": 35829.10156952136, "timestamp": "2025-12-11T18:59:46.315238+00:00", "meta": {"OBJECT_NAME": "IRNSS-1F", "OBJECT_ID": "2016-015A", "EPOCH": "2025-12-11T01:40:43.826880", "MEAN_MOTION": 1.00271635, "ECCENTRICITY": 0.0022527, "INCLINATION": 4.8764, "RA_OF_ASC_NODE": 101.3417, "ARG_OF_PERICENTER": 180.472, "MEAN_ANOMALY": 215.7645, "EPHEMERIS_TYPE": 0, "CLASSIFICATION_TYPE": "U", "NORAD_CAT_ID": 41384, "ELEMENT_SET_NO": 999, "REV_AT_EPOCH": 3578, "BSTAR": 0, "MEAN_MOTION_DOT": 1.64e-06, "MEAN_MOTION_DDOT": 0}, "tle": {"line1": "1 41384U 16015A   25345.06995170  .00000164  00000+0  00000+0 0  9998", "line2": "2 41384   4.8764 101.3417 0022527 180.4720 215.7645  1.00271635 35786"}}, "geometry": {"type": "Point", "coordinates": [38.36668957448708, -4.3315351543569225]}}, {"type": "Feature", "properties": {"norad_id": 41434, "name": "BEIDOU-2 IGSO-6 (C13)", "group": "gnss", "lat": 47.590295820000215, "lon": 79.18284992523307, "alt_km": 36023.91291875996, "timestamp": "2025-12-11T18:59:46.315250+00:00", "meta": {"OBJECT_NAME": "BEIDOU-2 IGSO-6 (C13)", "OBJECT_ID": "2016-021A", "EPOCH": "2025-12-03T15:53:57.382080", "MEAN_MOTION": 1.00293531, "ECCENTRICITY": 0.00596341, "INCLINATION": 59.9536, "RA_OF_ASC_NODE": 39.991, "ARG_OF_PERICENTER": 228.541, "MEAN_ANOMALY": 135.1173, "EPHEMERIS_TYPE": 0, "CLASSIFICATION_TYPE": "U", "NORAD_CAT_ID": 41434, "ELEMENT_SET_NO": 999, "REV_AT_EPOCH": 3552, "BSTAR": 0, "MEAN_MOTION_DOT": -1.61e-06, "MEAN_MOTION_DDOT": 0}, "tle": {"line1": "1 41434U 16021A   25337.66246970 -.00000161  00000+0  00000+0 0  9993", "line2": "2 41434  59.9536  39.9910 0059634 228.5410 135.1173  1.00293531 35525"}}, "geometry": {"type": "Point", "coordinates": [79.18284992523307, 47.590295820000215]}}]}